#dP2023  6 20  6  0  0.00000000      96 __u+U ITR00 EXT  IAC
## 2267 194400.00000000   900.00000000 60115 0.2500000000000
+  119   C06C07C08C09C10C11C12C13C14C16C19C20C21C22C23C24C25
+        C26C27C28C29C30C32C33C34C35C36C37C38C39C40C41C42C43
+        C44C45C46E02E03E04E05E07E08E09E10E11E12E13E14E15E18
+        E19E21E24E25E26E27E30E31E33E34E36G01G02G03G04G05G06
+        G07G08G09G10G11G12G13G14G15G16G17G18G19G20G21G22G23
+        G24G25G26G27G28G29G30G31G32J02J03J04R01R02R03R04R05
+        R07R08R09R11R12R13R14R15R16R17R18R19R20R21R22R24R25
++         8  9 10  9 10  8  9 10  8  8  8  8  8  7  7  8  8
++         6  8  8  9  7  8  9  7  8  9  7  9 10 10  9  9  7
++         9  7 10  7  8  7  7  8  7  7  7  7  7  7  7  7  7
++         8  7  7  7  7  7  8  6  7  7  7  7  7  8  8  9  7
++         8  7  8  7  7  7  8  8  7  7  7  8  7  8  7  7  8
++         7  7  7  7  7  7  8  8  7  9 10 10  7  8  8  8  7
++         8  9  8  7  7  7  8  7  7  8  7  7  7  8  8  7  8
%c M  cc GPS ccc cccc cccc cccc cccc ccccc ccccc ccccc ccccc
%c cc cc ccc ccc cccc cccc cccc cccc ccccc ccccc ccccc ccccc
%f  0.0000000  0.000000000  0.00000000000  0.000000000000000
%f  0.0000000  0.000000000  0.00000000000  0.000000000000000
%i    0    0    0    0      0      0      0      0         0
%i    0    0    0    0      0      0      0      0         0
/* IAC                                ULTRA-RAPID PREDICTION
/* S/V CLOCKS ARE ALIGNED TO GNSS TIME                      
/* G:C1WC2W R:C1PC2P E:C1XC5X C:C2IC6I J:C1CC2S             
/* PCV:IGS20_2247 OL/AL:FES2004  NONE     YN ORB:CoN CLK:CoN
*  2023 06 20 11 45  0.00000000
PC06  -7181.139515  40043.320371  11640.598814   -174.725473
PC07  -6270.307691  26713.762050 -31962.365863   -200.790135
PC08 -18739.602273  28887.152573  24207.423614    453.826363
PC09  -2077.129535  42385.135917   2102.994077    512.217580
PC10   1459.136472  28334.960415 -30763.878813    -91.268997
PC11  -6063.916479 -27249.138755    508.683994    683.945334
PC12   6337.760207 -21240.820177  16990.712782    726.664144
PC13 -10816.297474  29084.976034  28541.751459    299.952460
PC14  -9513.645359 -16758.222954 -20192.093269    438.673764
PC16  -7953.625881  39407.084076  13455.740307     36.256618
PC19  18807.916714  14934.940585  14210.163292   -926.105793
PC20    473.865653  16127.111948  22776.362897    490.723667
PC21  19651.814182  -7633.714387 -18253.007069   -925.378417
PC22  27251.457000   5075.040259  -3059.450121   -432.445492
PC23 -20467.219573   1161.608850  18944.724931   -963.887610
PC24  10368.827287 -22871.390777  12188.182304     83.483549
PC25  -8339.058172 -14536.628481  22309.724664    151.227202
PC26  20942.851842 -18080.006518  -3785.607489   -137.406768
PC27 -11552.071045  14114.220936 -21147.262857    157.888169
PC28 -16885.360854  -5084.057265 -21629.805438    117.352165
PC29  13195.897966  23054.643740   8538.061720    136.533670
PC30    860.801105  26190.701041  -9633.593289     -1.391957
PC32 -19697.393645   7749.053985  18210.783136   -546.851532
PC33 -18871.258848 -14849.995831 -14233.291025   -898.415612
PC34  -1802.875204 -26540.012565   8387.160324    197.205301
PC35  17187.670424   5105.198247  21377.320814    604.300430
PC36   7320.282281  15258.648797 -22159.415953   -372.925963
PC37 -21671.521326  16896.500724   4816.649303   -786.638319
PC38 -23771.963315  30388.686064  16892.493787     86.335899
PC39  -9053.632691  36898.870179  18573.212513     -3.421813
PC40  -9761.654326  21020.802683 -35236.673473    -26.830400
PC41 -27286.968652  -5378.047388   2443.745621   -917.505020
PC42   1033.177006 -15877.913673 -22884.727393   -642.225528
PC43 -12800.395323 -23541.122442  -7771.721614     27.036093
PC44  11238.239772 -14357.349635  21100.878974    143.908929
PC45  20619.598461  -1714.708585 -18728.192984   -112.675790
PC46  -9143.598527  22671.905784 -13422.324374    -62.921742
PE02 -14640.425668  16945.431589 -19352.323097     45.135220
PE03  -2857.983942  19543.897623  22043.233879    -28.198955
PE04 -14464.175542 -24309.531425  -8717.893134   -148.930188
PE05 -18791.111982   3229.226762  22650.927442    -56.263735
PE07  23540.688628  15057.207664  -9731.370255    -54.048540
PE08  14256.213122  24288.197343   9090.673706   -101.917374
PE09 -23519.783833 -15191.991323   9637.496663    -56.660980
PE10  -9151.508794 -18042.991376 -21622.448218   -542.591422
PE11 -14562.009712  -7228.093921 -24752.333596   2273.548814
PE12  -2852.373516 -25116.679041 -15397.395053   -587.081654
PE13  14179.054792   8037.406831  24704.324039    -19.295884
PE14 -24433.464185  -2878.248455 -20868.859879    259.417113
PE15   2585.878191  25314.426127  15124.240251    -30.894483
PE18  14765.932345  -5772.941475  18196.888879    203.544725
PE19   5238.235091 -17808.539870 -23045.503906  -2257.183145
PE21  27788.866457  -9322.966383   4117.979774   -536.076987
PE24 -25172.713720  -4744.560196  14807.022532   -165.316010
PE25 -27909.399939   9108.553105  -3773.956318   -607.058186
PE26  17376.142075 -14413.835895  19140.260883    139.585015
PE27  25584.567751   4154.551133 -14294.485292    -79.316598
PE30   7723.671285  15307.436995 -24136.588395   -270.629076
PE31  -8333.335598 -15047.015616  24098.417122   -526.283674
PE33  10431.665591 -27499.481197   3294.773675   -442.922000
PE34 -10314.818447  27560.395256  -3173.264495    -51.811885
PE36 -17325.364185  13720.301331 -19701.038177    -74.047547
PG01  13986.225722 -19984.225901   9728.843141    177.266521
PG02  15124.426316 -15485.657346  15795.865450   -584.016698
PG03  19254.439162 -12774.788551 -13124.196690   -263.661358
PG04   8676.376775 -12980.992438 -21460.455303     73.416656
PG05 -26114.981363   4553.611803  -2646.314367   -131.821868
PG06  -7770.122644 -16324.667828 -19363.300158    583.990261
PG07   4998.506256 -25432.482209   4911.197229    147.303193
PG08  17376.798872  -1946.013092  20029.339312   -128.286822
PG09  -1221.438957 -19813.245296 -17698.036201   -131.386966
PG10  11155.623014  12182.072916  21046.203303    -41.929105
PG11 -15596.218700   -988.008925 -21464.317162   -242.989864
PG12 -22104.945149  10278.318100 -10721.175905   -390.886172
PG13 -18852.382264  -7231.915059  17183.878758    536.519408
PG14  -7536.144032 -14156.998499  21207.498669     96.676208
PG15 -16865.120795   4662.656849  19588.622992     50.585637
PG16  26166.702423   1308.922232  -5946.333041   -489.548082
PG17 -12980.090790 -22602.493495   5227.753008    718.945216
PG18  -3740.685726  25150.338453   7381.530189   -314.902918
PG19 -17157.067797 -20235.769938  -3494.064629    333.098670
PG20 -23591.690292   -183.542094 -11975.569580    427.001785
PG21  15764.885540 -11900.607395  17862.248149    152.946744
PG22  18359.373697  18356.771730  -5528.039975    500.763155
PG23  -2787.002025  15506.801956  21361.318355     35.002565
PG24 -14516.903563  17043.171081  13602.606543   -231.213013
PG25 -10878.413314  15791.768167 -18579.003700    451.025680
PG26  20358.486683   6743.394650 -15998.725805    238.611926
PG27  20860.399791   9645.162834  13410.188576     12.787647
PG28   7696.899424  17988.526723 -17984.187973     83.526910
PG29  -2080.149971  18540.969232 -18921.504717   -603.371700
PG30  -2551.329906 -22719.675703  13407.365976   -509.805725
PG31  14140.050253   6254.039604 -21755.023125   -218.533593
PG32  16096.925405  21087.556162   2907.620236   -504.295929
PJ02 -35023.786105  16906.380547 -11715.928757     -0.669430
PJ03 -19846.864775  31224.095882 -15711.796137      7.021120
PJ04 -27799.688953  27070.119882  22636.578242     95.629093
PR01   8958.116859  14033.406354  19322.791003     59.796202
PR02  21794.062154  12680.228644   4116.985892    -22.674743
PR03  21711.107894   3529.500045 -12916.757864     80.030322
PR04   9542.368606  -7038.521692 -22554.979395    191.925602
PR05  -7652.225077 -13984.210927 -19892.825369    114.474371
PR07 -21289.030784  -2925.645146  13748.985137     58.444643
PR08  -9327.072657   7370.965284  22625.432637    -71.339716
PR09 -12887.609616  -3879.595248  21705.788179    126.829822
PR11 -18632.614021  16533.268139  -5521.994898    -84.296492
PR12  -3900.657016  14710.451066 -20437.948512     28.309453
PR13  11055.078725   5294.285468 -22378.737461    -36.279681
PR14  21418.099613  -8957.061399 -10527.211801     24.833698
PR15  18077.967467 -16658.574673   6815.240820     88.453804
PR16   4122.461674 -14754.788286  20397.002234     15.835925
PR17  10400.581214  -2426.766807  23166.829328    640.684886
PR18   6100.966107 -18651.935803  16274.971025     87.544180
PR19     88.732348 -25401.950940   2352.444265   -236.941570
PR20  -8185.458123 -17122.088799 -17022.168868    -95.083148
PR21 -10180.548396   3795.336212 -23083.032232    -16.659288
PR22  -6619.791362  19230.674890 -15382.684376     82.711776
PR24   9298.028274  16284.933357  17292.522533    -12.782123
PR25 -10822.184880   1770.542863 -23029.681641     58.790064
EOF
